NORAD_CAT_ID,OBJECT_NAME,OBJECT_TYPE,EPOCH,MEAN_MOTION,ECCENTRICITY,INCLINATION,RA_OF_ASC_NODE,ARG_OF_PERICENTER,MEAN_ANOMALY,BSTAR,MEAN_MOTION_DOT,MEAN_MOTION_DDOT,TLE_LINE0,TLE_LINE1,TLE_LINE2,SEMIMAJOR_AXIS,PERIOD,APOGEE,PERIGEE,DECAYED
55629.0,STARLINK-5497,PAYLOAD,2024-01-24 07:51:07,14.98331038,0.0002224,70.0024,359.5366,249.5606,110.5314,5.9077e-05,6.12e-06,0.0,0 STARLINK-5497,1 55629U 23021B   24024.32716669  .00000612  00000-0  59077-4 0  9998,2 55629  70.0024 359.5366 0002224 249.5606 110.5314 14.98331038 52159,6950.19,96.107,573.6,570.509,0.0
55629.0,STARLINK-5497,PAYLOAD,2024-01-24 22:16:19,14.98334129,0.0002178,70.0022,358.0216,244.2754,115.8181,7.4761e-05,7.99e-06,0.0,0 STARLINK-5497,1 55629U 23021B   24024.92800315  .00000799  00000-0  74761-4 0  9999,2 55629  70.0022 358.0216 0002178 244.2754 115.8181 14.98334129 52243,6950.18,96.107,573.559,570.531,0.0
55629.0,STARLINK-5497,PAYLOAD,2024-01-25 03:04:43,14.98331906,0.0002224,70.002,357.5168,246.5129,113.5796,3.6937e-05,3.48e-06,0.0,0 STARLINK-5497,1 55629U 23021B   24025.12828506  .00000348  00000-0  36937-4 0  9997,2 55629  70.0020 357.5168 0002224 246.5129 113.5796 14.98331906 51970,6950.187,96.107,573.598,570.506,0.0
55629.0,STARLINK-5497,PAYLOAD,2024-01-25 07:53:08,14.98331898,0.0002222,70.0019,357.0116,250.0794,110.0126,3.4863e-05,3.23e-06,0.0,0 STARLINK-5497,1 55629U 23021B   24025.32856542  .00000323  00000-0  34863-4 0  9999,2 55629  70.0019 357.0116 0002222 250.0794 110.0126 14.98331898 52309,6950.187,96.107,573.596,570.508,0.0
55629.0,STARLINK-5497,PAYLOAD,2024-01-25 22:18:20,14.98330474,0.0002288,70.0019,355.4968,248.5261,111.5654,5.1998e-05,5.28e-06,0.0,0 STARLINK-5497,1 55629U 23021B   24025.92940518  .00000528  00000-0  51998-4 0  9997,2 55629  70.0019 355.4968 0002288 248.5261 111.5654 14.98330474 52399,6950.191,96.107,573.647,570.466,0.0
55629.0,STARLINK-5497,PAYLOAD,2024-01-26 03:06:44,14.98330994,0.0002285,70.002,354.9917,248.8236,111.2679,5.3694e-05,5.48e-06,0.0,0 STARLINK-5497,1 55629U 23021B   24026.12968472  .00000548  00000-0  53694-4 0  9996,2 55629  70.0020 354.9917 0002285 248.8236 111.2679 14.98330994 52123,6950.19,96.107,573.643,570.467,0.0
55629.0,STARLINK-5497,PAYLOAD,2024-01-26 07:55:08,14.98332564,0.000226,70.002,354.4864,249.2916,110.8001,7.3648e-05,7.86e-06,0.0,0 STARLINK-5497,1 55629U 23021B   24026.32996383  .00000786  00000-0  73648-4 0  9995,2 55629  70.0020 354.4864 0002260 249.2916 110.8001 14.98332564 52457,6950.185,96.107,573.621,570.479,0.0
55629.0,STARLINK-5497,PAYLOAD,2024-01-27 03:08:45,14.98330503,0.0002375,70.0021,352.4672,239.9726,120.1198,5.9426e-05,6.16e-06,0.0,0 STARLINK-5497,1 55629U 23021B   24027.13108442  .00000616  00000-0  59426-4 0  9996,2 55629  70.0021 352.4672 0002375 239.9726 120.1198 14.98330503 52277,6950.191,96.107,573.707,570.406,0.0
55629.0,STARLINK-5497,PAYLOAD,2024-01-27 07:57:10,14.98329794,0.0002314,70.002,351.961,249.732,110.359,4.8825e-05,4.9e-06,0.0,0 STARLINK-5497,1 55629U 23021B   24027.33136608  .00000490  00000-0  48825-4 0  9994,2 55629  70.0020 351.9610 0002314 249.7320 110.3590 14.98329794 52608,6950.194,96.107,573.667,570.45,0.0
55629.0,STARLINK-5497,PAYLOAD,2024-01-27 22:22:22,14.98331157,0.000236,70.002,350.4461,251.7423,108.3479,2.6502e-05,2.23e-06,0.0,0 STARLINK-5497,1 55629U 23021B   24027.93220551  .00000223  00000-0  26502-4 0  9993,2 55629  70.0020 350.4461 0002360 251.7423 108.3479 14.98331157 52692,6950.189,96.107,573.695,570.414,0.0
55629.0,STARLINK-5497,PAYLOAD,2024-01-28 04:46:54,14.98331587,0.0002352,70.0019,349.773,251.0211,109.0694,2.9023e-05,2.53e-06,0.0,0 STARLINK-5497,1 55629U 23021B   24028.19924498  .00000253  00000-0  29023-4 0  9997,2 55629  70.0019 349.7730 0002352 251.0211 109.0694 14.98331587 52435,6950.188,96.107,573.688,570.418,0.0
55629.0,STARLINK-5497,PAYLOAD,2024-01-28 06:23:02,14.9833206,0.0002347,70.002,349.6047,250.9379,109.1526,3.4598e-05,3.2e-06,0.0,0 STARLINK-5497,1 55629U 23021B   24028.26600466  .00000320  00000-0  34598-4 0  9999,2 55629  70.0020 349.6047 0002347 250.9379 109.1526 14.98332060 52740,6950.187,96.107,573.683,570.42,0.0
55629.0,STARLINK-5497,PAYLOAD,2024-01-28 22:24:23,14.98330554,0.0002364,70.0018,347.9212,253.3781,106.7118,5.9882e-05,6.22e-06,0.0,0 STARLINK-5497,1 55629U 23021B   24028.93360472  .00000622  00000-0  59882-4 0  9991,2 55629  70.0018 347.9212 0002364 253.3781 106.7118 14.98330554 52842,6950.191,96.107,573.699,570.413,0.0
55629.0,STARLINK-5497,PAYLOAD,2024-01-29 06:25:03,14.98324274,0.0002382,70.0018,347.0796,253.2316,106.8581,0.00024799,2.867e-05,0.0,0 STARLINK-5497,1 55629U 23021B   24029.26740486  .00002867  00000-0  24799-3 0  9996,2 55629  70.0018 347.0796 0002382 253.2316 106.8581 14.98324274 52592,6950.211,96.107,573.731,570.42,0.0
55629.0,STARLINK-5497,PAYLOAD,2024-01-29 20:50:16,14.98331963,0.0002212,70.0019,345.5654,247.4541,112.6384,6.4886e-05,6.81e-06,0.0,0 STARLINK-5497,1 55629U 23021B   24029.86824299  .00000681  00000-0  64886-4 0  9991,2 55629  70.0019 345.5654 0002212 247.4541 112.6384 14.98331963 52988,6950.187,96.107,573.589,570.514,0.0
55629.0,STARLINK-5497,PAYLOAD,2024-01-30 06:27:04,14.98331498,0.0002174,70.0018,344.5547,258.7097,101.3817,5.3506e-05,5.46e-06,0.0,0 STARLINK-5497,1 55629U 23021B   24030.26880383  .00000546  00000-0  53506-4 0  9990,2 55629  70.0018 344.5547 0002174 258.7097 101.3817 14.98331498 52748,6950.188,96.107,573.564,570.542,0.0
55629.0,STARLINK-5497,PAYLOAD,2024-01-30 22:28:25,14.98331595,0.0002234,70.0017,342.8721,251.9243,108.1673,1.5689e-05,9.4e-07,0.0,0 STARLINK-5497,1 55629U 23021B   24030.93640350  .00000094  00000-0  15689-4 0  9990,2 55629  70.0017 342.8721 0002234 251.9243 108.1673 14.98331595 53145,6950.188,96.107,573.606,570.5,0.0
55629.0,STARLINK-5497,PAYLOAD,2024-01-31 06:29:05,14.98332652,0.0002293,70.0016,342.0308,245.0359,115.0562,2.6111e-05,2.19e-06,0.0,0 STARLINK-5497,1 55629U 23021B   24031.27020189  .00000219  00000-0  26111-4 0  9991,2 55629  70.0016 342.0308 0002293 245.0359 115.0562 14.98332652 52894,6950.185,96.107,573.643,570.456,0.0
55629.0,STARLINK-5497,PAYLOAD,2024-02-01 06:31:06,14.9832799,0.0002354,70.0012,339.5053,255.0736,105.0163,-1.1272e-05,-2.27e-06,0.0,0 STARLINK-5497,1 55629U 23021B   24032.27160562 -.00000227  00000-0 -11272-4 0  9995,2 55629  70.0012 339.5053 0002354 255.0736 105.0163 14.98327990 53049,6950.199,96.107,573.7,570.428,0.0
55629.0,STARLINK-5497,PAYLOAD,2024-02-02 06:33:07,14.98319049,0.0002083,70.0021,336.9778,268.5634,91.5286,0.00029742,3.457e-05,0.0,0 STARLINK-5497,1 55629U 23021B   24033.27300593  .00003457  00000-0  29742-3 0  9992,2 55629  70.0021 336.9778 0002083 268.5634  91.5286 14.98319049 53196,6950.227,96.108,573.539,570.644,0.0
55629.0,STARLINK-5497,PAYLOAD,2024-02-02 19:22:11,14.98331239,0.0001784,70.0026,335.6315,272.3368,87.7586,6.9436e-05,7.36e-06,0.0,0 STARLINK-5497,1 55629U 23021B   24033.80708285  .00000736  00000-0  69436-4 0  9993,2 55629  70.0026 335.6315 0001784 272.3368  87.7586 14.98331239 53272,6950.189,96.107,573.294,570.814,0.0
55629.0,STARLINK-5497,PAYLOAD,2024-02-02 22:34:28,14.98322733,0.0002105,70.0016,335.2961,260.148,99.9441,0.00014169,1.598e-05,0.0,0 STARLINK-5497,1 55629U 23021B   24033.94060381  .00001598  00000-0  14169-3 0  9995,2 55629  70.0016 335.2961 0002105 260.1480  99.9441 14.98322733 53591,6950.215,96.107,573.543,570.617,0.0
55629.0,STARLINK-5497,PAYLOAD,2024-02-03 04:59:00,14.98329256,0.0002295,70.0013,334.623,266.3252,93.7644,7.6021e-05,8.14e-06,0.0,0 STARLINK-5497,1 55629U 23021B   24034.20764277  .00000814  00000-0  76021-4 0  9996,2 55629  70.0013 334.6230 0002295 266.3252  93.7644 14.98329256 53634,6950.195,96.107,573.655,570.465,0.0
55629.0,STARLINK-5497,PAYLOAD,2024-02-03 19:24:12,14.98337233,0.0002393,70.0011,333.108,264.9686,95.12,-2.7716e-05,-4.24e-06,0.0,0 STARLINK-5497,1 55629U 23021B   24034.80848031 -.00000424  00000-0 -27716-4 0  9999,2 55629  70.0011 333.1080 0002393 264.9686  95.1200 14.98337233 53428,6950.171,96.107,573.699,570.372,0.0
55629.0,STARLINK-5497,PAYLOAD,2024-02-03 22:36:28,14.98336865,0.0002369,70.0012,332.7717,261.2576,98.8314,-8.0287e-06,-1.89e-06,0.0,0 STARLINK-5497,1 55629U 23021B   24034.94199888 -.00000189  00000-0 -80287-5 0  9994,2 55629  70.0012 332.7717 0002369 261.2576  98.8314 14.98336865 53743,6950.172,96.107,573.683,570.39,0.0
55629.0,STARLINK-5497,PAYLOAD,2024-02-04 05:01:00,14.98338684,0.0002297,70.0014,332.0985,259.7604,100.3296,2.7311e-07,-9e-07,0.0,0 STARLINK-5497,1 55629U 23021B   24035.20903684 -.00000090  00000-0  27311-6 0  9991,2 55629  70.0014 332.0985 0002297 259.7604 100.3296 14.98338684 53782,6950.166,96.106,573.627,570.435,0.0
55629.0,STARLINK-5497,PAYLOAD,2024-02-04 19:26:13,14.98330028,0.0002151,70.0018,330.5844,256.3473,103.7447,4.0885e-05,3.95e-06,0.0,0 STARLINK-5497,1 55629U 23021B   24035.80988013  .00000395  00000-0  40885-4 0  9992,2 55629  70.0018 330.5844 0002151 256.3473 103.7447 14.98330028 53575,6950.193,96.107,573.553,570.563,0.0
55629.0,STARLINK-5497,PAYLOAD,2024-02-04 22:38:29,14.98329089,0.0002208,70.0016,330.2474,256.229,103.8623,2.2348e-05,1.74e-06,0.0,0 STARLINK-5497,1 55629U 23021B   24035.94340091  .00000174  00000-0  22348-4 0  9994,2 55629  70.0016 330.2474 0002208 256.2290 103.8623 14.98329089 53895,6950.196,96.107,573.595,570.526,0.0
55629.0,STARLINK-5497,PAYLOAD,2024-02-05 13:03:42,14.9833199,0.0002568,70.0008,328.7296,271.8014,88.2851,2.2181e-05,1.72e-06,0.0,0 STARLINK-5497,1 55629U 23021B   24036.54423901  .00000172  00000-0  22181-4 0  9996,2 55629  70.0008 328.7296 0002568 271.8014  88.2851 14.98331990 53989,6950.187,96.107,573.837,570.267,0.0
55629.0,STARLINK-5497,PAYLOAD,2024-02-05 19:28:14,14.98336807,0.0002577,70.001,328.0561,270.8701,89.2163,-6.056e-05,-8.16e-06,0.0,0 STARLINK-5497,1 55629U 23021B   24036.81127840 -.00000816  00000-0 -60560-4 0  9999,2 55629  70.0010 328.0561 0002577 270.8701  89.2163 14.98336807 53723,6950.172,96.107,573.828,570.246,0.0
